OBJECT_NAME,OBJECT_ID,EPOCH,MEAN_MOTION,ECCENTRICITY,INCLINATION,RA_OF_ASC_NODE,ARG_OF_PERICENTER,MEAN_ANOMALY,EPHEMERIS_TYPE,CLASSIFICATION_TYPE,NORAD_CAT_ID,ELEMENT_SET_NO,REV_AT_EPOCH,BSTAR,MEAN_MOTION_DOT,MEAN_MOTION_DDOT
ONEWEB-0721,2023-068R,2026-06-15T13:13:30.767520,13.22468998,.00019054,86.6766,86.0383,77.8102,282.3244,0,U,56725,999,15772,-.8488343E-5,.11E-6,0
ONEWEB-0015,2024-188A,2026-06-15T13:18:39.562848,13.11417586,.00022042,87.8887,21.4184,74.4732,285.6639,0,U,61594,999,8424,-.15548687E-2,-.538E-5,0
ONEWEB-0687,2024-188B,2026-06-15T13:26:40.005600,13.17648289,.00023344,87.9128,6.2003,87.5986,272.5413,0,U,61595,999,8568,.16801427E-3,.78E-6,0
ONEWEB-0688,2024-188C,2026-06-15T14:07:58.678176,13.17648728,.00027359,87.9128,6.1945,65.8208,294.3209,0,U,61596,999,8568,.10013504E-3,.52E-6,0
ONEWEB-0689,2024-188D,2026-06-15T14:07:30.307008,13.11417928,.00020426,87.8902,21.3692,91.4333,268.7029,0,U,61597,999,8424,.15905572E-2,.576E-5,0
ONEWEB-0690,2024-188E,2026-06-15T14:22:09.641280,13.11414363,.00012555,87.8895,21.3790,71.7136,288.4128,0,U,61598,999,8442,.92257757E-3,.34E-5,0
ONEWEB-0691,2024-188F,2026-06-15T14:14:50.896896,13.11416077,.00021437,87.8905,21.2885,79.5427,280.5942,0,U,61599,999,8427,.13703512E-2,.498E-5,0
ONEWEB-0692,2024-188G,2026-06-15T14:44:07.102176,13.11414629,.00018191,87.8886,21.3979,111.0045,249.1278,0,U,61600,999,8426,-.10029966E-2,-.343E-5,0
ONEWEB-0693,2024-188H,2026-06-15T14:24:58.968000,13.17647906,.00013337,87.9124,6.2122,64.8125,295.3144,0,U,61601,999,8567,.50599037E-4,.33E-6,0
ONEWEB-0695,2024-188J,2026-06-15T14:09:57.736512,13.11415988,.00020363,87.8885,21.3946,99.8773,260.2585,0,U,61602,999,8425,.15525078E-2,.563E-5,0
ONEWEB-0697,2024-188K,2026-06-15T13:06:27.164736,13.11416295,.00017258,87.8886,21.3937,110.5714,249.5599,0,U,61603,999,8423,-.1678599E-2,-.582E-5,0
ONEWEB-0698,2024-188L,2026-06-15T14:24:35.891424,13.11414004,.00008554,87.8884,21.3970,117.8858,242.2356,0,U,61604,999,8426,.65872698E-3,.246E-5,0
ONEWEB-0699,2024-188M,2026-06-15T14:41:17.415168,13.10376743,.00015474,87.8839,36.5801,103.7675,256.3624,0,U,61605,999,8310,.7332579E-3,.269E-5,0
ONEWEB-0700,2024-188N,2026-06-15T14:43:40.840896,13.10376813,.00019426,87.8855,36.4884,103.3766,256.7578,0,U,61606,999,8309,.10859418E-2,.392E-5,0
ONEWEB-0701,2024-188P,2026-06-15T09:37:43.889088,13.10371820,.00015765,87.8837,36.6210,110.8694,249.2602,0,U,61607,999,8307,.18050722E-2,.643E-5,0
ONEWEB-0702,2024-188Q,2026-06-15T13:40:39.116352,13.11420933,.00020195,87.8906,21.3086,115.8606,244.2730,0,U,61608,999,8427,.58348518E-3,.22E-5,0
ONEWEB-0704,2024-188R,2026-06-15T14:50:51.749664,13.10375137,.00021745,87.8843,36.5674,112.2435,247.8923,0,U,61609,999,8308,.13843197E-2,.496E-5,0
ONEWEB-0705,2024-188S,2026-06-15T09:28:09.780960,13.10378370,.00026428,87.8846,36.6174,99.0581,261.0846,0,U,61610,999,7522,.20377251E-2,.724E-5,0
ONEWEB-0706,2024-188T,2026-06-15T14:36:30.258720,13.10376465,.00020523,87.8837,36.5801,99.5968,260.5391,0,U,61611,999,8317,.13404202E-3,.59E-6,0
ONEWEB-0707,2024-188U,2026-06-15T14:46:04.528416,13.10375893,.00019806,87.8843,36.5725,99.7710,260.3641,0,U,61612,999,8311,.95469531E-3,.346E-5,0
ONEWEB-0708,2024-188V,2026-06-15T07:52:33.405888,13.10371281,.00023581,87.8831,36.6480,84.0146,276.1250,0,U,61613,999,8305,.1745889E-2,.622E-5,0
