ONEWEB-0721             
1 56725U 23068R   26166.55105055  .00000011  00000+0 -84883-5 0  9999
2 56725  86.6766  86.0383 0001905  77.8102 282.3244 13.22468998157723
ONEWEB-0015             
1 61594U 24188A   26166.55462457 -.00000538  00000+0 -15549-2 0  9990
2 61594  87.8887  21.4184 0002204  74.4732 285.6639 13.11417586 84242
ONEWEB-0687             
1 61595U 24188B   26166.56018525  .00000078  00000+0  16801-3 0  9995
2 61595  87.9128   6.2003 0002334  87.5986 272.5413 13.17648289 85689
ONEWEB-0688             
1 61596U 24188C   26166.58887359  .00000052  00000+0  10014-3 0  9999
2 61596  87.9128   6.1945 0002735  65.8208 294.3209 13.17648728 85688
ONEWEB-0689             
1 61597U 24188D   26166.58854522  .00000576  00000+0  15906-2 0  9991
2 61597  87.8902  21.3692 0002042  91.4333 268.7029 13.11417928 84247
ONEWEB-0690             
1 61598U 24188E   26166.59872270  .00000340  00000+0  92258-3 0  9998
2 61598  87.8895  21.3790 0001255  71.7136 288.4128 13.11414363 84424
ONEWEB-0691             
1 61599U 24188F   26166.59364464  .00000498  00000+0  13704-2 0  9992
2 61599  87.8905  21.2885 0002143  79.5427 280.5942 13.11416077 84271
ONEWEB-0692             
1 61600U 24188G   26166.61397109 -.00000343  00000+0 -10030-2 0  9990
2 61600  87.8886  21.3979 0001819 111.0045 249.1278 13.11414629 84267
ONEWEB-0693             
1 61601U 24188H   26166.60068250  .00000033  00000+0  50599-4 0  9992
2 61601  87.9124   6.2122 0001333  64.8125 295.3144 13.17647906 85674
ONEWEB-0695             
1 61602U 24188J   26166.59025158  .00000563  00000+0  15525-2 0  9997
2 61602  87.8885  21.3946 0002036  99.8773 260.2585 13.11415988 84258
ONEWEB-0697             
1 61603U 24188K   26166.54614774 -.00000582  00000+0 -16786-2 0  9994
2 61603  87.8886  21.3937 0001725 110.5714 249.5599 13.11416295 84235
ONEWEB-0698             
1 61604U 24188L   26166.60041541  .00000246  00000+0  65873-3 0  9995
2 61604  87.8884  21.3970 0000855 117.8858 242.2356 13.11414004 84263
ONEWEB-0699             
1 61605U 24188M   26166.61200712  .00000269  00000+0  73326-3 0  9991
2 61605  87.8839  36.5801 0001547 103.7675 256.3624 13.10376743 83107
ONEWEB-0700             
1 61606U 24188N   26166.61366714  .00000392  00000+0  10859-2 0  9995
2 61606  87.8855  36.4884 0001942 103.3766 256.7578 13.10376813 83090
ONEWEB-0701             
1 61607U 24188P   26166.40120242  .00000643  00000+0  18051-2 0  9998
2 61607  87.8837  36.6210 0001576 110.8694 249.2602 13.10371820 83078
ONEWEB-0702             
1 61608U 24188Q   26166.56989718  .00000220  00000+0  58349-3 0  9993
2 61608  87.8906  21.3086 0002019 115.8606 244.2730 13.11420933 84270
ONEWEB-0704             
1 61609U 24188R   26166.61865451  .00000496  00000+0  13843-2 0  9991
2 61609  87.8843  36.5674 0002174 112.2435 247.8923 13.10375137 83080
ONEWEB-0705             
1 61610U 24188S   26166.39455765  .00000724  00000+0  20377-2 0  9995
2 61610  87.8846  36.6174 0002642  99.0581 261.0846 13.10378370 75226
ONEWEB-0706             
1 61611U 24188T   26166.60868355  .00000059  00000+0  13404-3 0  9998
2 61611  87.8837  36.5801 0002052  99.5968 260.5391 13.10376465 83177
ONEWEB-0707             
1 61612U 24188U   26166.61533019  .00000346  00000+0  95470-3 0  9998
2 61612  87.8843  36.5725 0001980  99.7710 260.3641 13.10375893 83110
ONEWEB-0708             
1 61613U 24188V   26166.32816442  .00000622  00000+0  17459-2 0  9998
2 61613  87.8831  36.6480 0002358  84.0146 276.1250 13.10371281 83058
